{"type":"FeatureCollection","features":[{"type":"Feature","geometry":{"type":"Point","coordinates":[2.1357728973,49.101268773]},"properties":{"nom":"SOCIETE COOPERATIVE AGRICOLE NATUP (SCA CAP SEINE)","activite":"46.21Z","categorie":"Coopérative ou service collectif agricole","commune":"HEROUVILLE-EN-VEXIN","adresse":"6 RUE PAUL BAGNARD 95300 HEROUVILLE-EN-VEXIN","siret":"77570109701847","date_creation":"2013-07-01","source":"SIRENE · API Recherche d’entreprises · extraction 27/07/2026"}},{"type":"Feature","geometry":{"type":"Point","coordinates":[1.7957382777,49.158745986]},"properties":{"nom":"SOCIETE COOPERATIVE AGRICOLE SEVEPI (SEVEPI)","activite":"46.21Z","categorie":"Coopérative ou service collectif agricole","commune":"MAGNY-EN-VEXIN","adresse":"62 RUE DE BEAUVAIS 95420 MAGNY-EN-VEXIN","siret":"77557381900239","date_creation":"2005-12-08","source":"SIRENE · API Recherche d’entreprises · extraction 27/07/2026"}},{"type":"Feature","geometry":{"type":"Point","coordinates":[1.7334171501,49.069532944]},"properties":{"nom":"CONSEILS COMPETENCES PRODUCTIONS ANIMALE (C.C.P.A.)","activite":"01.50Z","categorie":"Coopérative ou service collectif agricole","commune":"VIENNE-EN-ARTHIES","adresse":"4 ROUTE DE VILLENEUVE 95510 VIENNE-EN-ARTHIES","siret":"77566826200022","date_creation":"1900-01-01","source":"SIRENE · API Recherche d’entreprises · extraction 27/07/2026"}},{"type":"Feature","geometry":{"type":"Point","coordinates":[2.08210925175072,49.035760952731]},"properties":{"nom":"CREDIT COOPERATIF","activite":"64.19Z","categorie":"Coopérative ou service collectif agricole","commune":"CERGY","adresse":"10-12-IMMEUBLE GRAND AXE 10 BOULEVARD DE L'OISE 95000 CERGY","siret":"34997493101619","date_creation":"2020-12-04","source":"SIRENE · API Recherche d’entreprises · extraction 27/07/2026"}},{"type":"Feature","geometry":{"type":"Point","coordinates":[2.0742821757,49.037247373]},"properties":{"nom":"CENTRE DE CONSEIL ET DE SERVICE -CCS","activite":"66.19B","categorie":"Coopérative ou service collectif agricole","commune":"CERGY","adresse":"3 ALLEE DE L'ETOILE 95000 CERGY","siret":"50451455500276","date_creation":"2009-01-01","source":"SIRENE · API Recherche d’entreprises · extraction 27/07/2026"}}]}