{"type":"FeatureCollection","features":[{"type":"Feature","geometry":{"type":"Point","coordinates":[2.3489511085,49.077817761]},"properties":{"nom":"AGRI SANTERRE","activite":"46.61Z","categorie":"Commerce de gros de matériel agricole","commune":"VILLAINES-SOUS-BOIS","adresse":"14 ROUTE DE VIARMES 95570 VILLAINES-SOUS-BOIS","siret":"61172050900144","date_creation":"2018-05-15","source":"SIRENE · API Recherche d’entreprises · extraction 27/07/2026"}},{"type":"Feature","geometry":{"type":"Point","coordinates":[2.0564673556,49.085765877]},"properties":{"nom":"ETABLISSEMENTS DANTAN","activite":"46.61Z","categorie":"Commerce de gros de matériel agricole","commune":"GENICOURT","adresse":"CHE DEPARTEMENTAL 22 95650 GENICOURT","siret":"30053107600044","date_creation":"1992-06-08","source":"SIRENE · API Recherche d’entreprises · extraction 27/07/2026"}},{"type":"Feature","geometry":{"type":"Point","coordinates":[1.7842618424,49.147724727]},"properties":{"nom":"ETABLISSEMENTS DANTAN","activite":"47.52A","categorie":"Commerce de gros de matériel agricole","commune":"MAGNY-EN-VEXIN","adresse":"ZI DE LA DEMI LUNE 10 RUE GUTENBERG 95420 MAGNY-EN-VEXIN","siret":"30053107600051","date_creation":"2007-11-01","source":"SIRENE · API Recherche d’entreprises · extraction 27/07/2026"}},{"type":"Feature","geometry":{"type":"Point","coordinates":[2.324251254,49.062605878]},"properties":{"nom":"EQUIP'JARDIN ILE-DE-FRANCE","activite":"46.61Z","categorie":"Commerce de gros de matériel agricole","commune":"BAILLET-EN-FRANCE","adresse":"15 17 ZAC LES PONTS DE BAILLET, 15 AVENUE DU BOSQUET 95560 BAILLET-EN-FRANCE","siret":"34920873600059","date_creation":"2023-10-01","source":"SIRENE · API Recherche d’entreprises · extraction 27/07/2026"}},{"type":"Feature","geometry":{"type":"Point","coordinates":[2.5186294855,49.058240925]},"properties":{"nom":"BOUCHARD ENVIROMAT","activite":"46.61Z","categorie":"Commerce de gros de matériel agricole","commune":"LOUVRES","adresse":"ZAC DU RONCE 7 AVENUE BEAUMONTOIR 95380 LOUVRES","siret":"38909747800058","date_creation":"2016-04-01","source":"SIRENE · API Recherche d’entreprises · extraction 27/07/2026"}},{"type":"Feature","geometry":{"type":"Point","coordinates":[2.4518197792,49.052751691]},"properties":{"nom":"MOTOBRIE","activite":"46.61Z","categorie":"Commerce de gros de matériel agricole","commune":"FONTENAY-EN-PARISIS","adresse":"3 RUE RENAULT 95190 FONTENAY-EN-PARISIS","siret":"38815071600032","date_creation":"1996-01-30","source":"SIRENE · API Recherche d’entreprises · extraction 27/07/2026"}},{"type":"Feature","geometry":{"type":"Point","coordinates":[2.1470070534,49.059832186]},"properties":{"nom":"PRISMA","activite":"46.61Z","categorie":"Commerce de gros de matériel agricole","commune":"SAINT-OUEN-L'AUMONE","adresse":"HELIPARC VILLA ENTREPRISE RUE SAINT SIMON 95310 SAINT-OUEN-L'AUMONE","siret":"40350719700024","date_creation":"1997-04-01","source":"SIRENE · API Recherche d’entreprises · extraction 27/07/2026"}},{"type":"Feature","geometry":{"type":"Point","coordinates":[2.0830119971,49.035733409]},"properties":{"nom":"PRISMA","activite":"46.61Z","categorie":"Commerce de gros de matériel agricole","commune":"CERGY","adresse":"1 BOULEVARD DE L'OISE 95000 CERGY","siret":"40350719700032","date_creation":"2006-04-21","source":"SIRENE · API Recherche d’entreprises · extraction 27/07/2026"}},{"type":"Feature","geometry":{"type":"Point","coordinates":[1.9705474157,49.147633281]},"properties":{"nom":"THOMAS MOTOCULTURE","activite":"46.61Z","categorie":"Commerce de gros de matériel agricole","commune":"MARINES","adresse":"25 BOULEVARD GAMBETTA 95640 MARINES","siret":"72820369600022","date_creation":"1980-03-01","source":"SIRENE · API Recherche d’entreprises · extraction 27/07/2026"}},{"type":"Feature","geometry":{"type":"Point","coordinates":[2.22750104630313,48.9273681750035]},"properties":{"nom":"HUSQVARNA FRANCE","activite":"46.61Z","categorie":"Commerce de gros de matériel agricole","commune":"BEZONS","adresse":"222 RUE MICHEL CARRE 95870 BEZONS","siret":"31525622200086","date_creation":"2025-09-01","source":"SIRENE · API Recherche d’entreprises · extraction 27/07/2026"}},{"type":"Feature","geometry":{"type":"Point","coordinates":[2.1742617532,49.017685347]},"properties":{"nom":"FILPACK PROTECTION (FILPACK)","activite":"46.19B","categorie":"Commerce de gros de matériel agricole","commune":"PIERRELAYE","adresse":"47 CHAUSSEE JULES CESAR 95480 PIERRELAYE","siret":"79936959000010","date_creation":"2013-11-22","source":"SIRENE · API Recherche d’entreprises · extraction 27/07/2026"}},{"type":"Feature","geometry":{"type":"Point","coordinates":[2.2788374061,49.146117771]},"properties":{"nom":"PASCAL COLLOMBET (OISE AGRI)","activite":"46.61Z","categorie":"Commerce de gros de matériel agricole","commune":"PERSAN","adresse":"22 RUE DU HUIT MAI 1945 95340 PERSAN","siret":"38929038800021","date_creation":"2016-01-15","source":"SIRENE · API Recherche d’entreprises · extraction 27/07/2026"}},{"type":"Feature","geometry":{"type":"Point","coordinates":[2.08056630063659,49.0431243562865]},"properties":{"nom":"IDS AGRICULTURE","activite":"46.61Z","categorie":"Commerce de gros de matériel agricole","commune":"PONTOISE","adresse":"20 RUE LAVOISIER 95300 PONTOISE","siret":"85268755700029","date_creation":"2024-01-01","source":"SIRENE · API Recherche d’entreprises · extraction 27/07/2026"}},{"type":"Feature","geometry":{"type":"Point","coordinates":[2.2845632564,48.96613012]},"properties":{"nom":"STEFAN KRASTEV","activite":"46.61Z","categorie":"Commerce de gros de matériel agricole","commune":"SAINT-GRATIEN","adresse":"41 RUE BERTHIE ALBRECHT 95210 SAINT-GRATIEN","siret":"53847145900015","date_creation":"2011-12-12","source":"SIRENE · API Recherche d’entreprises · extraction 27/07/2026"}},{"type":"Feature","geometry":{"type":"Point","coordinates":[2.19941601229301,48.9976430307798]},"properties":{"nom":"CEA ABEILLES (BEST B)","activite":"46.61Z","categorie":"Commerce de gros de matériel agricole","commune":"MONTIGNY-LES-CORMEILLES","adresse":"8 RUE COLETTE 95370 MONTIGNY-LES-CORMEILLES","siret":"93227156200013","date_creation":"2024-08-25","source":"SIRENE · API Recherche d’entreprises · extraction 27/07/2026"}},{"type":"Feature","geometry":{"type":"Point","coordinates":[2.1293221018,49.104137251]},"properties":{"nom":"ETABLISSEMENTS KRUCZOWY","activite":"46.61Z","categorie":"Commerce de gros de matériel agricole","commune":"HEROUVILLE","adresse":"RTE DE BEAUVAIS 95300 HEROUVILLE","siret":"41524207200015","date_creation":"1998-01-22","source":"SIRENE · API Recherche d’entreprises · extraction 27/07/2026"}},{"type":"Feature","geometry":{"type":"Point","coordinates":[1.8013986322,49.148353833]},"properties":{"nom":"COOPERATIVE DE MARNAGE","activite":"46.61Z","categorie":"Commerce de gros de matériel agricole","commune":"MAGNY-EN-VEXIN","adresse":"RTE ARTHIEUL 95420 MAGNY-EN-VEXIN","siret":"78588003000016","date_creation":"1900-01-01","source":"SIRENE · API Recherche d’entreprises · extraction 27/07/2026"}},{"type":"Feature","geometry":{"type":"Point","coordinates":[2.2229063981,49.027789974]},"properties":{"nom":"FREDERIC DUPIRE","activite":"46.61Z","categorie":"Commerce de gros de matériel agricole","commune":"TAVERNY","adresse":"226 RUE DE PARIS 95150 TAVERNY","siret":"50945760200019","date_creation":"2008-11-01","source":"SIRENE · API Recherche d’entreprises · extraction 27/07/2026"}},{"type":"Feature","geometry":{"type":"Point","coordinates":[2.2071796137,48.956432807]},"properties":{"nom":"ETABLISSEMENTS P P K","activite":"46.61Z","categorie":"Commerce de gros de matériel agricole","commune":"ARGENTEUIL","adresse":"ZI DU CHEMIN VERT 10-16 10 RUE DE L’ANGOUMOIS 95100 ARGENTEUIL","siret":"57223106600026","date_creation":"1993-08-01","source":"SIRENE · API Recherche d’entreprises · extraction 27/07/2026"}},{"type":"Feature","geometry":{"type":"Point","coordinates":[2.31019169800433,48.9643521569297]},"properties":{"nom":"CLAYDON (CLAYDON)","activite":"46.61Z","categorie":"Commerce de gros de matériel agricole","commune":"ENGHIEN-LES-BAINS","adresse":"18 RUE GAMBETTA 95880 ENGHIEN-LES-BAINS","siret":"92140672400010","date_creation":"2022-07-01","source":"SIRENE · API Recherche d’entreprises · extraction 27/07/2026"}},{"type":"Feature","geometry":{"type":"Point","coordinates":[2.14315611225047,49.0403544743797]},"properties":{"nom":"NEGOCE INTERNATIONAL","activite":"46.61Z","categorie":"Commerce de gros de matériel agricole","commune":"SAINT-OUEN-L'AUMONE","adresse":"27 AVENUE DES BETHUNES 95310 SAINT-OUEN-L'AUMONE","siret":"99008600100015","date_creation":"2025-07-30","source":"SIRENE · API Recherche d’entreprises · extraction 27/07/2026"}},{"type":"Feature","geometry":{"type":"Point","coordinates":[2.4257093309,48.99100868]},"properties":{"nom":"AZ IMPEX (AZ IMPEX)","activite":"46.61Z","categorie":"Commerce de gros de matériel agricole","commune":"GONESSE","adresse":"9 RUE CHARLES GOUNOD 95500 GONESSE","siret":"91066775700017","date_creation":"2022-02-22","source":"SIRENE · API Recherche d’entreprises · extraction 27/07/2026"}},{"type":"Feature","geometry":{"type":"Point","coordinates":[1.9518742372,49.051200169]},"properties":{"nom":"ETABLISSEMENTS VAUVILLIERS FRERES","activite":"46.61Z","categorie":"Commerce de gros de matériel agricole","commune":"SAGY","adresse":"9 RUE DE VAUVILLIERS 95450 SAGY","siret":"30378186800011","date_creation":"1975-01-01","source":"SIRENE · API Recherche d’entreprises · extraction 27/07/2026"}},{"type":"Feature","geometry":{"type":"Point","coordinates":[2.2754554711,49.150395657]},"properties":{"nom":"WLADIMIR ZANDT (BIO PERSAN)","activite":"46.61Z","categorie":"Commerce de gros de matériel agricole","commune":"PERSAN","adresse":"10 RUE PIERRE BROSSOLETTE 95340 PERSAN","siret":"83458844400010","date_creation":"2016-03-17","source":"SIRENE · API Recherche d’entreprises · extraction 27/07/2026"}},{"type":"Feature","geometry":{"type":"Point","coordinates":[2.324251254,49.062605878]},"properties":{"nom":"DUPORT 95","activite":"46.61Z","categorie":"Commerce de gros de matériel agricole","commune":"BAILLET-EN-FRANCE","adresse":"15-17-ZAC LE PONTS DE BAILLETS 15 AVENUE DU BOSQUET 95560 BAILLET-EN-FRANCE","siret":"38441695400020","date_creation":"2003-01-02","source":"SIRENE · API Recherche d’entreprises · extraction 27/07/2026"}},{"type":"Feature","geometry":{"type":"Point","coordinates":[2.1018841702,49.075862097]},"properties":{"nom":"DEMAGRI SERVICES","activite":"46.61Z","categorie":"Commerce de gros de matériel agricole","commune":"ENNERY","adresse":"16 RUE DU PERREUX 95300 ENNERY","siret":"92178460900015","date_creation":"2022-11-17","source":"SIRENE · API Recherche d’entreprises · extraction 27/07/2026"}}]}